{
    "links": {
        "self": "http://www.neowsapp.com/rest/v1/neo/3836409?api_key=iIulBulltgU6a56xZRHN4H3l9WmuAYTsLGpBGhQ2"
    },
    "id": "3836409",
    "neo_reference_id": "3836409",
    "name": "(2018 WB2)",
    "designation": "2018 WB2",
    "nasa_jpl_url": "http://ssd.jpl.nasa.gov/sbdb.cgi?sstr=3836409",
    "absolute_magnitude_h": 20.8,
    "estimated_diameter": {
        "kilometers": {
            "estimated_diameter_min": 0.1838886721,
            "estimated_diameter_max": 0.411187571
        },
        "meters": {
            "estimated_diameter_min": 183.8886720703,
            "estimated_diameter_max": 411.1875710413
        },
        "miles": {
            "estimated_diameter_min": 0.1142630881,
            "estimated_diameter_max": 0.2555000322
        },
        "feet": {
            "estimated_diameter_min": 603.309310875,
            "estimated_diameter_max": 1349.040630575
        }
    },
    "is_potentially_hazardous_asteroid": false,
    "close_approach_data": [
        {
            "close_approach_date": "2018-11-23",
            "close_approach_date_full": "2018-Nov-23 00:14",
            "epoch_date_close_approach": 1542932040000,
            "relative_velocity": {
                "kilometers_per_second": "18.4950073099",
                "kilometers_per_hour": "66582.0263155111",
                "miles_per_hour": "41371.4818514352"
            },
            "miss_distance": {
                "astronomical": "0.3238376675",
                "lunar": "125.9728526575",
                "kilometers": "48445425.283768225",
                "miles": "30102591.395622505"
            },
            "orbiting_body": "Earth"
        },
        {
            "close_approach_date": "2020-12-03",
            "close_approach_date_full": "2020-Dec-03 06:27",
            "epoch_date_close_approach": 1606976820000,
            "relative_velocity": {
                "kilometers_per_second": "26.5234819701",
                "kilometers_per_hour": "95484.5350925238",
                "miles_per_hour": "59330.3768190185"
            },
            "miss_distance": {
                "astronomical": "0.4760408787",
                "lunar": "185.1799018143",
                "kilometers": "71214701.486448369",
                "miles": "44250763.5685067322"
            },
            "orbiting_body": "Earth"
        }
    ],
    "orbital_data": {
        "orbit_id": "3",
        "orbit_determination_date": "2020-09-11 07:41:26",
        "first_observation_date": "2018-11-28",
        "last_observation_date": "2018-12-18",
        "data_arc_in_days": 20,
        "observations_used": 29,
        "orbit_uncertainty": "7",
        "minimum_orbit_intersection": ".220801",
        "jupiter_tisserand_invariant": "4.008",
        "epoch_osculation": "2459000.5",
        "eccentricity": ".3662525045207254",
        "semi_major_axis": "1.64537487975598",
        "inclination": "36.1375045414333",
        "ascending_node_longitude": "69.43930426619619",
        "orbital_period": "770.8958730754068",
        "perihelion_distance": "1.042752209169865",
        "perihelion_argument": "294.7544588654653",
        "aphelion_distance": "2.247997550342096",
        "perihelion_time": "2459146.448036615636",
        "mean_anomaly": "291.8438520470719",
        "mean_motion": ".4669891389660946",
        "equinox": "J2000",
        "orbit_class": {
            "orbit_class_type": "AMO",
            "orbit_class_description": "Near-Earth asteroid orbits similar to that of 1221 Amor",
            "orbit_class_range": "1.017 AU < q (perihelion) < 1.3 AU"
        }
    },
    "is_sentry_object": false
}